start=new Date('2022-06-27T00:00:00.000Z').valueOf();
sats=[{"TLE_LINE1":"1 45381U 20019X   22177.93831247  .00000707  00000-0  66336-4 0  9991","PERIAPSIS":"546.156","SITE":"AFETR","ARG_OF_PERICENTER":"88.8559","DECAY_DATE":null,"NORAD_CAT_ID":"45381","CLASSIFICATION_TYPE":"U","MEAN_ELEMENT_THEORY":"SGP4","MEAN_MOTION_DOT":"0.00000707","GP_ID":"206923404","MEAN_MOTION":"15.06400051","EPOCH":"2022-06-26T22:31:10.197408","OBJECT_NAME":"STARLINK-1258","APOAPSIS":"548.271","TIME_SYSTEM":"UTC","ECCENTRICITY":"0.00015270","OBJECT_TYPE":"PAYLOAD","RCS_SIZE":"LARGE","MEAN_ANOMALY":"271.2605","PERIOD":"95.592","RA_OF_ASC_NODE":"94.8717","REV_AT_EPOCH":"12626","SEMIMAJOR_AXIS":"6925.348","INCLINATION":"53.0570","BSTAR":"0.00006633600000","OBJECT_ID":"2020-019X","CENTER_NAME":"EARTH","EPHEMERIS_TYPE":"0","MEAN_MOTION_DDOT":"0.0000000000000","COUNTRY_CODE":"US","TLE_LINE2":"2 45381  53.0570  94.8717 0001527  88.8559 271.2605 15.06400051126269","FILE":"3503441","ELEMENT_SET_NO":"999","LAUNCH_DATE":"2020-03-18","REF_FRAME":"TEME"},{"MEAN_MOTION_DOT":"0.00001125","GP_ID":"206923155","MEAN_ELEMENT_THEORY":"SGP4","CLASSIFICATION_TYPE":"U","TLE_LINE1":"1 45382U 20019Y   22177.91524962  .00001125  00000-0  94426-4 0  9999","ARG_OF_PERICENTER":"69.1190","SITE":"AFETR","PERIAPSIS":"546.024","DECAY_DATE":null,"NORAD_CAT_ID":"45382","TIME_SYSTEM":"UTC","APOAPSIS":"548.421","ECCENTRICITY":"0.00017310","MEAN_MOTION":"15.06397148","EPOCH":"2022-06-26T21:57:57.567168","OBJECT_NAME":"STARLINK-1264","INCLINATION":"53.0541","BSTAR":"0.00009442600000","RA_OF_ASC_NODE":"94.9604","SEMIMAJOR_AXIS":"6925.357","REV_AT_EPOCH":"12608","MEAN_ANOMALY":"290.9984","PERIOD":"95.592","OBJECT_TYPE":"PAYLOAD","RCS_SIZE":"LARGE","LAUNCH_DATE":"2020-03-18","REF_FRAME":"TEME","TLE_LINE2":"2 45382  53.0541  94.9604 0001731  69.1190 290.9984 15.06397148126084","FILE":"3503441","COUNTRY_CODE":"US","ELEMENT_SET_NO":"999","MEAN_MOTION_DDOT":"0.0000000000000","OBJECT_ID":"2020-019Y","EPHEMERIS_TYPE":"0","CENTER_NAME":"EARTH"},{"TLE_LINE2":"2 45383  53.0560  94.9118 0001555  80.9471 279.1694 15.06406308126269","FILE":"3503441","COUNTRY_CODE":"US","ELEMENT_SET_NO":"999","LAUNCH_DATE":"2020-03-18","REF_FRAME":"TEME","OBJECT_ID":"2020-019Z","EPHEMERIS_TYPE":"0","CENTER_NAME":"EARTH","MEAN_MOTION_DDOT":"0.0000000000000","RA_OF_ASC_NODE":"94.9118","SEMIMAJOR_AXIS":"6925.329","REV_AT_EPOCH":"12626","INCLINATION":"53.0560","BSTAR":"0.00013505000000","OBJECT_TYPE":"PAYLOAD","RCS_SIZE":"LARGE","MEAN_ANOMALY":"279.1694","PERIOD":"95.592","TIME_SYSTEM":"UTC","APOAPSIS":"548.271","ECCENTRICITY":"0.00015550","MEAN_MOTION":"15.06406308","OBJECT_NAME":"STARLINK-1266","EPOCH":"2022-06-26T22:20:32.426304","MEAN_MOTION_DOT":"0.00001731","GP_ID":"206924406","TLE_LINE1":"1 45383U 20019Z   22177.93093086  .00001731  00000-0  13505-3 0  9991","SITE":"AFETR","ARG_OF_PERICENTER":"80.9471","PERIAPSIS":"546.117","NORAD_CAT_ID":"45383","DECAY_DATE":null,"CLASSIFICATION_TYPE":"U","MEAN_ELEMENT_THEORY":"SGP4"},{"RCS_SIZE":"LARGE","OBJECT_TYPE":"PAYLOAD","PERIOD":"95.592","MEAN_ANOMALY":"286.8220","SEMIMAJOR_AXIS":"6925.347","REV_AT_EPOCH":"12626","RA_OF_ASC_NODE":"94.9527","BSTAR":"0.00011583000000","INCLINATION":"53.0560","EPHEMERIS_TYPE":"0","CENTER_NAME":"EARTH","OBJECT_ID":"2020-019AA","MEAN_MOTION_DDOT":"0.0000000000000","ELEMENT_SET_NO":"999","COUNTRY_CODE":"US","TLE_LINE2":"2 45384  53.0560  94.9527 0001526  73.2936 286.8220 15.06400430126263","FILE":"3503441","REF_FRAME":"TEME","LAUNCH_DATE":"2020-03-18","NORAD_CAT_ID":"45384","DECAY_DATE":null,"PERIAPSIS":"546.155","SITE":"AFETR","ARG_OF_PERICENTER":"73.2936","TLE_LINE1":"1 45384U 20019AA  22177.91892879  .00001444  00000-0  11583-3 0  9992","CLASSIFICATION_TYPE":"U","MEAN_ELEMENT_THEORY":"SGP4","GP_ID":"206924634","MEAN_MOTION_DOT":"0.00001444","EPOCH":"2022-06-26T22:03:15.447456","OBJECT_NAME":"STARLINK-1267","MEAN_MOTION":"15.06400430","ECCENTRICITY":"0.00015260","APOAPSIS":"548.269","TIME_SYSTEM":"UTC"},{"PERIOD":"95.592","MEAN_ANOMALY":"293.1274","RCS_SIZE":"LARGE","OBJECT_TYPE":"PAYLOAD","BSTAR":"-0.00002211700000","INCLINATION":"53.0549","SEMIMAJOR_AXIS":"6925.332","REV_AT_EPOCH":"12626","RA_OF_ASC_NODE":"94.9467","MEAN_MOTION_DDOT":"0.0000000000000","CENTER_NAME":"EARTH","EPHEMERIS_TYPE":"0","OBJECT_ID":"2020-019AC","REF_FRAME":"TEME","LAUNCH_DATE":"2020-03-18","ELEMENT_SET_NO":"999","COUNTRY_CODE":"US","TLE_LINE2":"2 45386  53.0549  94.9467 0001760  66.9901 293.1274 15.06405554126268","FILE":"3503441","CLASSIFICATION_TYPE":"U","MEAN_ELEMENT_THEORY":"SGP4","DECAY_DATE":null,"NORAD_CAT_ID":"45386","SITE":"AFETR","ARG_OF_PERICENTER":"66.9901","PERIAPSIS":"545.978","TLE_LINE1":"1 45386U 20019AC  22177.92356706 -.00000611  00000-0 -22117-4 0  9992","GP_ID":"206922905","MEAN_MOTION_DOT":"-0.00000611","OBJECT_NAME":"STARLINK-1272","EPOCH":"2022-06-26T22:09:56.193984","MEAN_MOTION":"15.06405554","ECCENTRICITY":"0.00017600","APOAPSIS":"548.415","TIME_SYSTEM":"UTC"},{"ECCENTRICITY":"0.00014940","TIME_SYSTEM":"UTC","APOAPSIS":"548.258","OBJECT_NAME":"STARLINK-1274","EPOCH":"2022-06-26T21:06:14.775552","MEAN_MOTION":"15.06396898","GP_ID":"206923655","MEAN_MOTION_DOT":"0.00001547","SITE":"AFETR","ARG_OF_PERICENTER":"68.2178","PERIAPSIS":"546.188","TLE_LINE1":"1 45387U 20019AD  22177.87933768  .00001547  00000-0  12274-3 0  9995","NORAD_CAT_ID":"45387","DECAY_DATE":null,"MEAN_ELEMENT_THEORY":"SGP4","CLASSIFICATION_TYPE":"U","ELEMENT_SET_NO":"999","TLE_LINE2":"2 45387  53.0551  95.1307 0001494  68.2178 291.8970 15.06396898126250","FILE":"3503441","COUNTRY_CODE":"US","LAUNCH_DATE":"2020-03-18","REF_FRAME":"TEME","OBJECT_ID":"2020-019AD","CENTER_NAME":"EARTH","EPHEMERIS_TYPE":"0","MEAN_MOTION_DDOT":"0.0000000000000","REV_AT_EPOCH":"12625","SEMIMAJOR_AXIS":"6925.358","RA_OF_ASC_NODE":"95.1307","INCLINATION":"53.0551","BSTAR":"0.00012274000000","RCS_SIZE":"LARGE","OBJECT_TYPE":"PAYLOAD","MEAN_ANOMALY":"291.8970","PERIOD":"95.592"},{"MEAN_ANOMALY":"292.8573","PERIOD":"95.592","OBJECT_TYPE":"PAYLOAD","RCS_SIZE":"LARGE","INCLINATION":"53.0549","BSTAR":"0.00021182000000","RA_OF_ASC_NODE":"117.9485","SEMIMAJOR_AXIS":"6925.337","REV_AT_EPOCH":"12587","MEAN_MOTION_DDOT":"0.0000000000000","OBJECT_ID":"2020-019AE","CENTER_NAME":"EARTH","EPHEMERIS_TYPE":"0","LAUNCH_DATE":"2020-03-18","REF_FRAME":"TEME","TLE_LINE2":"2 45388  53.0549 117.9485 0001521  67.2576 292.8573 15.06403729125879","COUNTRY_CODE":"US","FILE":"3503181","ELEMENT_SET_NO":"999","MEAN_ELEMENT_THEORY":"SGP4","CLASSIFICATION_TYPE":"U","TLE_LINE1":"1 45388U 20019AE  22177.25087338  .00002875  00000-0  21182-3 0  9994","SITE":"AFETR","PERIAPSIS":"546.149","ARG_OF_PERICENTER":"67.2576","DECAY_DATE":null,"NORAD_CAT_ID":"45388","MEAN_MOTION_DOT":"0.00002875","GP_ID":"206893075","MEAN_MOTION":"15.06403729","OBJECT_NAME":"STARLINK-1280","EPOCH":"2022-06-26T06:01:15.460032","APOAPSIS":"548.255","TIME_SYSTEM":"UTC","ECCENTRICITY":"0.00015210"},{"TLE_LINE1":"1 45389U 20019AF  22177.49599984  .00001429  00000-0  11487-3 0  9997","SITE":"AFETR","ARG_OF_PERICENTER":"59.0033","PERIAPSIS":"546.051","NORAD_CAT_ID":"45389","DECAY_DATE":null,"MEAN_ELEMENT_THEORY":"SGP4","CLASSIFICATION_TYPE":"U","MEAN_MOTION_DOT":"0.00001429","GP_ID":"206892323","MEAN_MOTION":"15.06392076","OBJECT_NAME":"STARLINK-1283","EPOCH":"2022-06-26T11:54:14.386176","TIME_SYSTEM":"UTC","APOAPSIS":"548.425","ECCENTRICITY":"0.00017140","OBJECT_TYPE":"PAYLOAD","RCS_SIZE":"LARGE","MEAN_ANOMALY":"301.1124","PERIOD":"95.593","RA_OF_ASC_NODE":"96.8655","REV_AT_EPOCH":"12620","SEMIMAJOR_AXIS":"6925.373","INCLINATION":"53.0568","BSTAR":"0.00011487000000","OBJECT_ID":"2020-019AF","CENTER_NAME":"EARTH","EPHEMERIS_TYPE":"0","MEAN_MOTION_DDOT":"0.0000000000000","TLE_LINE2":"2 45389  53.0568  96.8655 0001714  59.0033 301.1124 15.06392076126202","FILE":"3503181","COUNTRY_CODE":"US","ELEMENT_SET_NO":"999","LAUNCH_DATE":"2020-03-18","REF_FRAME":"TEME"},{"ARG_OF_PERICENTER":"66.6733","SITE":"AFETR","PERIAPSIS":"545.718","TLE_LINE1":"1 45390U 20019AG  22177.93462391  .00000800  00000-0  72634-4 0  9993","DECAY_DATE":null,"NORAD_CAT_ID":"45390","MEAN_ELEMENT_THEORY":"SGP4","CLASSIFICATION_TYPE":"U","GP_ID":"206923405","MEAN_MOTION_DOT":"0.00000800","EPOCH":"2022-06-26T22:25:51.505824","OBJECT_NAME":"STARLINK-1284","MEAN_MOTION":"15.06399223","ECCENTRICITY":"0.00021630","TIME_SYSTEM":"UTC","APOAPSIS":"548.714","RCS_SIZE":"LARGE","OBJECT_TYPE":"PAYLOAD","MEAN_ANOMALY":"293.4484","PERIOD":"95.592","SEMIMAJOR_AXIS":"6925.351","REV_AT_EPOCH":"12626","RA_OF_ASC_NODE":"94.8791","INCLINATION":"53.0536","BSTAR":"0.00007263400000","OBJECT_ID":"2020-019AG","EPHEMERIS_TYPE":"0","CENTER_NAME":"EARTH","MEAN_MOTION_DDOT":"0.0000000000000","ELEMENT_SET_NO":"999","COUNTRY_CODE":"US","TLE_LINE2":"2 45390  53.0536  94.8791 0002163  66.6733 293.4484 15.06399223126267","FILE":"3503441","LAUNCH_DATE":"2020-03-18","REF_FRAME":"TEME"},{"GP_ID":"206893325","MEAN_MOTION_DOT":"0.00002378","MEAN_ELEMENT_THEORY":"SGP4","CLASSIFICATION_TYPE":"U","DECAY_DATE":null,"NORAD_CAT_ID":"45391","SITE":"AFETR","PERIAPSIS":"546.096","ARG_OF_PERICENTER":"73.9858","TLE_LINE1":"1 45391U 20019AH  22177.48399954  .00002378  00000-0  17850-3 0  9998","ECCENTRICITY":"0.00016190","APOAPSIS":"548.339","TIME_SYSTEM":"UTC","OBJECT_NAME":"STARLINK-1289","EPOCH":"2022-06-26T11:36:57.560256","MEAN_MOTION":"15.06398707","BSTAR":"0.00017850000000","INCLINATION":"53.0558","REV_AT_EPOCH":"12592","SEMIMAJOR_AXIS":"6925.353","RA_OF_ASC_NODE":"96.9004","PERIOD":"95.592","MEAN_ANOMALY":"286.1309","RCS_SIZE":"LARGE","OBJECT_TYPE":"PAYLOAD","REF_FRAME":"TEME","LAUNCH_DATE":"2020-03-18","ELEMENT_SET_NO":"999","TLE_LINE2":"2 45391  53.0558  96.9004 0001619  73.9858 286.1309 15.06398707125929","COUNTRY_CODE":"US","FILE":"3503181","MEAN_MOTION_DDOT":"0.0000000000000","CENTER_NAME":"EARTH","EPHEMERIS_TYPE":"0","OBJECT_ID":"2020-019AH"}];
